0 SATCOM 3 DEB
1 32984U 79101K   13285.34632564 -.00000062  00000-0  00000+0 0  5002
2 32984 008.8223 165.9590 4853415 323.8859 260.4890 01.82640361 37004
0 SATCOM 3 DEB
1 32984U 79101K   13288.72780215 -.00000039  00000-0  00000+0 0  5019
2 32984 008.8257 165.6071 4852610 324.5405 323.8035 01.82640661 37067
0 SATCOM 3 DEB
1 32984U 79101K   13293.66388215 -.00000095  00000-0  00000+0 0  5025
2 32984 008.8306 165.0954 4851534 325.4912 329.2828 01.82640638 37157
